NORAD_CAT_ID,OBJECT_NAME,OBJECT_TYPE,EPOCH,MEAN_MOTION,ECCENTRICITY,INCLINATION,RA_OF_ASC_NODE,ARG_OF_PERICENTER,MEAN_ANOMALY,BSTAR,MEAN_MOTION_DOT,MEAN_MOTION_DDOT,TLE_LINE0,TLE_LINE1,TLE_LINE2,SEMIMAJOR_AXIS,PERIOD,APOGEE,PERIGEE,DECAYED
52088.0,STARLINK-3537,PAYLOAD,2022-07-12 06:00:00,15.76675531,0.0001333,53.207,286.8221,54.3226,131.8891,-0.00012199,-0.00020523,0.0,0 STARLINK-3537,1 52088U 22029A   22193.25001157 -.00020523  00000-0 -12199-3 0  9995,2 52088  53.2070 286.8221 0001333  54.3226 131.8891 15.76675531 19471,6718.004,91.331,340.765,338.974,0.0
52088.0,STARLINK-3537,PAYLOAD,2022-07-12 14:00:01,15.76648307,0.0001505,53.2074,285.166,42.9191,236.39,0.00034485,0.00055953,0.0,0 STARLINK-3537,1 52088U 22029A   22193.58334491  .00055953  00000-0  34485-3 0  9996,2 52088  53.2074 285.1660 0001505  42.9191 236.3900 15.76648307  1305,6718.081999999999,91.333,340.958,338.936,0.0
52088.0,STARLINK-3537,PAYLOAD,2022-07-12 22:00:00,15.76757337,0.0001467,53.2069,283.5066,39.7881,332.7019,0.00027578,0.00044774,0.0,0 STARLINK-3537,1 52088U 22029A   22193.91667824  .00044774  00000-0  27578-3 0  9996,2 52088  53.2069 283.5066 0001467  39.7881 332.7019 15.76757337 19583,6717.772,91.327,340.6230000000001,338.652,0.0
52088.0,STARLINK-3537,PAYLOAD,2022-07-13 14:00:01,15.76736604,0.000172,53.2065,280.1908,40.8292,158.0978,-0.00054281,-0.00088606,0.0,0 STARLINK-3537,1 52088U 22029A   22194.58334491 -.00088606  00000-0 -54281-3 0  9996,2 52088  53.2065 280.1908 0001720  40.8292 158.0978 15.76736604 19686,6717.831,91.328,340.851,338.541,0.0
52088.0,STARLINK-3537,PAYLOAD,2022-07-13 22:00:00,15.76687374,0.0001574,53.206,278.5312,40.8922,251.186,-0.00042825,-0.00070041,0.0,0 STARLINK-3537,1 52088U 22029A   22194.91667824 -.00070041  00000-0 -42825-3 0  9997,2 52088  53.2060 278.5312 0001574  40.8922 251.1860 15.76687374  1302,6717.971,91.331,340.89300000000014,338.778,0.0
52088.0,STARLINK-3537,PAYLOAD,2022-07-14 04:00:00,15.76615971,0.0001437,53.2059,277.2864,42.0303,229.8685,0.00066218,0.00108563,0.0,0 STARLINK-3537,1 52088U 22029A   22195.16667824  .00108563  00000-0  66218-3 0  9996,2 52088  53.2059 277.2864 0001437  42.0303 229.8685 15.76615971 19774,6718.174,91.335,341.004,339.0730000000001,0.0
52088.0,STARLINK-3537,PAYLOAD,2022-07-14 14:00:01,15.76661593,0.000172,53.2061,275.216,35.4506,82.7852,0.00044976,0.0007337,0.0,0 STARLINK-3537,1 52088U 22029A   22195.58334491  .00073370  00000-0  44976-3 0  9997,2 52088  53.2061 275.2160 0001720  35.4506  82.7852 15.76661593 19841,6718.044,91.332,341.065,338.754,0.0
52088.0,STARLINK-3537,PAYLOAD,2022-07-14 22:00:00,15.76759862,0.0001582,53.2058,273.5563,32.9722,178.3805,-0.00044748,-0.00073363,0.0,0 STARLINK-3537,1 52088U 22029A   22195.91667824 -.00073363  00000-0 -44748-3 0  9994,2 52088  53.2058 273.5563 0001582  32.9722 178.3805 15.76759862  1302,6717.765,91.327,340.6930000000001,338.56699999999995,0.0
52088.0,STARLINK-3537,PAYLOAD,2022-07-15 06:00:00,15.76692368,0.0001466,53.2057,271.8974,32.8003,271.7234,0.00028647,0.00046409,0.0,0 STARLINK-3537,1 52088U 22029A   22196.25001157  .00046409  00000-0  28647-3 0  9992,2 52088  53.2057 271.8974 0001466  32.8003 271.7234 15.76692368 19940,6717.956999999999,91.33,340.807,338.837,0.0
52088.0,STARLINK-3537,PAYLOAD,2022-07-15 14:00:01,15.76733892,0.0001779,53.2053,270.241,28.3359,9.3498,0.00014967,0.00023914,0.0,0 STARLINK-3537,1 52088U 22029A   22196.58334491  .00023914  00000-0  14967-3 0  9994,2 52088  53.2053 270.2410 0001779  28.3359   9.3498 15.76733892  1301,6717.839,91.328,340.899,338.509,0.0
52088.0,STARLINK-3537,PAYLOAD,2022-07-15 22:00:00,15.76752207,0.0001667,53.205,268.5807,30.5514,100.3367,-0.00020448,-0.00034022,0.0,0 STARLINK-3537,1 52088U 22029A   22196.91667824 -.00034022  00000-0 -20448-3 0  9995,2 52088  53.2050 268.5807 0001667  30.5514 100.3367 15.76752207  1300,6717.7869999999975,91.327,340.772,338.532,0.0
52088.0,STARLINK-3537,PAYLOAD,2022-07-16 06:00:00,15.76721901,0.0001629,53.2052,266.9217,33.9244,190.1483,0.00011875,0.00018817,0.0,0 STARLINK-3537,1 52088U 22029A   22197.25001157  .00018817  00000-0  11875-3 0  9990,2 52088  53.2052 266.9217 0001629  33.9244 190.1483 15.76721901 20106,6717.873000000001,91.329,340.832,338.64300000000014,0.0
52088.0,STARLINK-3537,PAYLOAD,2022-07-16 14:00:01,15.76718254,0.0001981,53.2051,265.2652,30.702,286.5668,5.3508e-05,8.106e-05,0.0,0 STARLINK-3537,1 52088U 22029A   22197.58334491  .00008106  00000-0  53508-4 0  9996,2 52088  53.2051 265.2652 0001981  30.7020 286.5668 15.76718254  1301,6717.8830000000025,91.329,341.079,338.417,0.0
52088.0,STARLINK-3537,PAYLOAD,2022-07-16 22:00:00,15.76756244,0.0001781999999999,53.2049,263.6049,29.2488,21.1934,-0.00030972,-0.00051104,0.0,0 STARLINK-3537,1 52088U 22029A   22197.91667824 -.00051104  00000-0 -30972-3 0  9999,2 52088  53.2049 263.6049 0001782  29.2488  21.1934 15.76756244  1300,6717.775,91.327,340.837,338.4430000000001,0.0
52088.0,STARLINK-3537,PAYLOAD,2022-07-17 06:00:00,15.76767287,0.0001684,53.2048,261.9463,27.3104,116.302,-0.00043905,-0.00072029,0.0,0 STARLINK-3537,1 52088U 22029A   22198.25001157 -.00072029  00000-0 -43905-3 0  9997,2 52088  53.2048 261.9463 0001684  27.3104 116.3020 15.76767287 20263,6717.744000000002,91.326,340.74,338.478,0.0
52088.0,STARLINK-3537,PAYLOAD,2022-07-17 14:00:01,15.76701674,0.0002001,53.2046,260.2898,21.618,215.1991,4.4332e-05,6.597e-05,0.0,0 STARLINK-3537,1 52088U 22029A   22198.58334491  .00006597  00000-0  44332-4 0  9994,2 52088  53.2046 260.2898 0002001  21.6180 215.1991 15.76701674  1307,6717.93,91.33,341.139,338.451,0.0
52088.0,STARLINK-3537,PAYLOAD,2022-07-17 22:00:00,15.76686651,0.0001886,53.2045,258.6295,27.9368,301.9579,-6.667399999999999e-05,-0.00011532,0.0,0 STARLINK-3537,1 52088U 22029A   22198.91667824 -.00011532  00000-0 -66674-4 0  9990,2 52088  53.2045 258.6295 0001886  27.9368 301.9579 15.76686651  1308,6717.973000000001,91.331,341.105,338.571,0.0
52088.0,STARLINK-3537,PAYLOAD,2022-07-18 06:00:00,15.76669292,0.0002021,53.2048,256.971,35.5078,27.5059,-5.5017e-05,-9.626e-05,0.0,0 STARLINK-3537,1 52088U 22029A   22199.25001157 -.00009626  00000-0 -55017-4 0  9999,2 52088  53.2048 256.9710 0002021  35.5078  27.5059 15.76669292 20429,6718.022,91.332,341.245,338.529,0.0
52088.0,STARLINK-3537,PAYLOAD,2022-07-18 14:00:01,15.76635821,0.0002321,53.2048,255.3146,32.3435,123.7724,0.00062231,0.00102004,0.0,0 STARLINK-3537,1 52088U 22029A   22199.58334491  .00102004  00000-0  62231-3 0  9992,2 52088  53.2048 255.3146 0002321  32.3435 123.7724 15.76635821  1305,6718.1169999999975,91.334,341.542,338.423,0.0
52088.0,STARLINK-3537,PAYLOAD,2022-07-18 22:00:00,15.76702867,0.0002111,53.2048,253.654,33.3205,215.898,0.00019649,0.00031586,0.0,0 STARLINK-3537,1 52088U 22029A   22199.91667824  .00031586  00000-0  19649-3 0  9999,2 52088  53.2048 253.6540 0002111  33.3205 215.8980 15.76702867 20524,6717.927,91.33,341.21,338.374,0.0
52088.0,STARLINK-3537,PAYLOAD,2022-07-19 14:00:01,15.76731705,0.0002207,53.2044,250.3394,23.6738,51.9164,1.469e-05,1.749e-05,0.0,0 STARLINK-3537,1 52088U 22029A   22200.58334491  .00001749  00000-0  14690-4 0  9996,2 52088  53.2044 250.3394 0002207  23.6738  51.9164 15.76731705  1301,6717.845,91.328,341.1930000000001,338.227,0.0
52088.0,STARLINK-3537,PAYLOAD,2022-07-19 22:00:00,15.76758184,0.0002036,53.2108,248.6926,24.4297,144.3277,-0.00066338,-0.00108008,0.0,0 STARLINK-3537,1 52088U 22029A   22200.91667824 -.00108008  00000-0 -66338-3 0  9995,2 52088  53.2108 248.6926 0002036  24.4297 144.3277 15.76758184 20686,6717.77,91.327,341.0019999999999,338.267,0.0
52088.0,STARLINK-3537,PAYLOAD,2022-07-20 04:00:00,15.76952142,0.0002311999999999,53.205,247.4336,40.338,108.6832,0.00067101,0.00111724,0.0,0 STARLINK-3537,1 52088U 22029A   22201.16667824  .00111724  00000-0  67101-3 0  9999,2 52088  53.2050 247.4336 0002312  40.3380 108.6832 15.76952142 20726,6717.219,91.315,340.63699999999994,337.531,0.0
52088.0,STARLINK-3537,PAYLOAD,2022-07-20 14:00:01,15.76971879,0.0002609,53.2048,245.3618,35.9407,319.9013,0.00069754,0.00116336,0.0,0 STARLINK-3537,1 52088U 22029A   22201.58334491  .00116336  00000-0  69754-3 0  9996,2 52088  53.2048 245.3618 0002609  35.9407 319.9013 15.76971879 20784,6717.163000000001,91.314,340.78,337.275,0.0
52088.0,STARLINK-3537,PAYLOAD,2022-07-20 22:00:01,15.77015957,0.0002366,53.2048,243.7006,39.2133,50.2021,0.00052886,0.00087919,0.0,0 STARLINK-3537,1 52088U 22029A   22201.91668981  .00087919  00000-0  52886-3 0  9999,2 52088  53.2048 243.7006 0002366  39.2133  50.2021 15.77015957 20848,6717.038000000001,91.312,340.492,337.3130000000001,0.0
52088.0,STARLINK-3537,PAYLOAD,2022-07-21 14:00:01,15.77088478,0.0002633,53.2047,240.3839,36.3411,240.2332,0.00058535,0.00097813,0.0,0 STARLINK-3537,1 52088U 22029A   22202.58335648  .00097813  00000-0  58535-3 0  9995,2 52088  53.2047 240.3839 0002633  36.3411 240.2332 15.77088478  1302,6716.831999999999,91.307,340.465,336.92800000000005,0.0
52088.0,STARLINK-3537,PAYLOAD,2022-07-21 22:00:00,15.77127275,0.0002456,53.205,238.7222,41.1136,329.0467,0.00054362,0.00090874,0.0,0 STARLINK-3537,1 52088U 22029A   22202.91667824  .00090874  00000-0  54362-3 0  9990,2 52088  53.2050 238.7222 0002456  41.1136 329.0467 15.77127275  1308,6716.722,91.305,340.236,336.9369999999999,0.0
52088.0,STARLINK-3537,PAYLOAD,2022-07-22 06:00:00,15.77203707,0.0002601,53.2052,237.0634,41.6736,62.164,0.00011773,0.00019063,0.0,0 STARLINK-3537,1 52088U 22029A   22203.25001157  .00019063  00000-0  11773-3 0  9999,2 52088  53.2052 237.0634 0002601  41.6736  62.1640 15.77203707  1305,6716.505,91.301,340.117,336.6230000000001,0.0
52088.0,STARLINK-3537,PAYLOAD,2022-07-22 22:00:00,15.7726518,0.0002549,53.2047,233.7431,43.2226,248.2159,0.00063241,0.00106677,0.0,0 STARLINK-3537,1 52088U 22029A   22203.91667824  .00106677  00000-0  63241-3 0  9996,2 52088  53.2047 233.7431 0002549  43.2226 248.2159 15.77265180 21150,6716.33,91.297,339.907,336.483,0.0
